{
"type": "FeatureCollection",
"name": "chinadata",
"crs": { "type": "name", "properties": { "name": "urn:ogc:def:crs:OGC:1.3:CRS84" } },
"features": [
{ "type": "Feature", "properties": { "nameEn":"Beijing","name": "北京市", "x": 116.405285, "y": 39.904989, "data": 20 }, "geometry": { "type": "Point", "coordinates": [ 116.405285, 39.904989 ] } },
{ "type": "Feature", "properties": { "nameEn":"Tianjin","name": "天津市", "x": 117.190182, "y": 39.125596, "data": 12 }, "geometry": { "type": "Point", "coordinates": [ 117.190182, 39.125596 ] } },
{ "type": "Feature", "properties": { "nameEn":"Heibei","name": "河北省", "x": 114.502461, "y": 38.045474, "data": 128 }, "geometry": { "type": "Point", "coordinates": [ 114.502461, 38.045474 ] } },
{ "type": "Feature", "properties": { "nameEn":"Shanxi","name": "山西省", "x": 112.549248, "y": 37.857014, "data": 126 }, "geometry": { "type": "Point", "coordinates": [ 112.549248, 37.857014 ] } },
{ "type": "Feature", "properties": { "nameEn":"Neimenggu","name": "内蒙古自治区", "x": 111.670801, "y": 40.818311, "data": 192 }, "geometry": { "type": "Point", "coordinates": [ 111.670801, 40.818311 ] } },
{ "type": "Feature", "properties": { "nameEn":"Liaoning","name": "辽宁省", "x": 123.429096, "y": 41.796767, "data": 47 }, "geometry": { "type": "Point", "coordinates": [ 123.429096, 41.796767 ] } },
{ "type": "Feature", "properties": { "nameEn":"Jilin","name": "吉林省", "x": 125.3245, "y": 43.886841, "data": 52 }, "geometry": { "type": "Point", "coordinates": [ 125.3245, 43.886841 ] } },
{ "type": "Feature", "properties": { "nameEn":"Heilongjiang","name": "黑龙江省", "x": 126.642464, "y": 45.756967, "data": 53 }, "geometry": { "type": "Point", "coordinates": [ 126.642464, 45.756967 ] } },
{ "type": "Feature", "properties": { "nameEn":"Shanghai","name": "上海市", "x": 121.472644, "y": 31.231706, "data": 21 }, "geometry": { "type": "Point", "coordinates": [ 121.472644, 31.231706 ] } },
{ "type": "Feature", "properties": { "nameEn":"Jiangsu","name": "江苏省", "x": 118.767413, "y": 32.041544, "data": 130 }, "geometry": { "type": "Point", "coordinates": [ 118.767413, 32.041544 ] } },
{ "type": "Feature", "properties": { "nameEn":"Zhejiang","name": "浙江省", "x": 120.153576, "y": 30.287459, "data": 84 }, "geometry": { "type": "Point", "coordinates": [ 120.153576, 30.287459 ] } },
{ "type": "Feature", "properties": { "nameEn":"Anhui","name": "安徽省", "x": 117.283042, "y": 31.86119, "data": 132 }, "geometry": { "type": "Point", "coordinates": [ 117.283042, 31.86119 ] } },
{ "type": "Feature", "properties": { "nameEn":"Fujian","name": "福建省", "x": 119.306239, "y": 26.075302, "data": 55 }, "geometry": { "type": "Point", "coordinates": [ 119.306239, 26.075302 ] } },
{ "type": "Feature", "properties": { "nameEn":"Jiangxi","name": "江西省", "x": 115.892151, "y": 28.676493, "data": 58 }, "geometry": { "type": "Point", "coordinates": [ 115.892151, 28.676493 ] } },
{ "type": "Feature", "properties": { "nameEn":"Shandong","name": "山东省", "x": 117.000923, "y": 36.675807, "data": 131 }, "geometry": { "type": "Point", "coordinates": [ 117.000923, 36.675807 ] } },
{ "type": "Feature", "properties": { "nameEn":"Henan","name": "河南省", "x": 113.665412, "y": 34.757975, "data": 121 }, "geometry": { "type": "Point", "coordinates": [ 113.665412, 34.757975 ] } },
{ "type": "Feature", "properties": { "nameEn":"Hubei","name": "湖北省", "x": 114.298572, "y": 30.584355, "data": 144 }, "geometry": { "type": "Point", "coordinates": [ 114.298572, 30.584355 ] } },
{ "type": "Feature", "properties": { "nameEn":"Hunan","name": "湖南省", "x": 112.982279, "y": 28.19409, "data": 124 }, "geometry": { "type": "Point", "coordinates": [ 112.982279, 28.19409 ] } },
{ "type": "Feature", "properties": { "nameEn":"Guangdong","name": "广东省", "x": 113.280637, "y": 23.125178, "data": 65 }, "geometry": { "type": "Point", "coordinates": [ 113.280637, 23.125178 ] } },
{ "type": "Feature", "properties": { "nameEn":"Guangxi","name": "广西壮族自治区", "x": 108.320004, "y": 22.82402, "data": 102 }, "geometry": { "type": "Point", "coordinates": [ 108.320004, 22.82402 ] } },
{ "type": "Feature", "properties": { "nameEn":"Hainan","name": "海南省", "x": 110.33119, "y": 20.031971, "data": 18 }, "geometry": { "type": "Point", "coordinates": [ 110.33119, 20.031971 ] } },
{ "type": "Feature", "properties": { "nameEn":"Chongqing","name": "重庆市", "x": 106.504962, "y": 29.533155, "data": 16 }, "geometry": { "type": "Point", "coordinates": [ 106.504962, 29.533155 ] } },
{ "type": "Feature", "properties": { "nameEn":"Sichuan","name": "四川省", "x": 104.065735, "y": 30.659462, "data": 109 }, "geometry": { "type": "Point", "coordinates": [ 104.065735, 30.659462 ] } },
{ "type": "Feature", "properties": { "nameEn":"Guizhou","name": "贵州省", "x": 106.713478, "y": 26.578343, "data": 133 }, "geometry": { "type": "Point", "coordinates": [ 106.713478, 26.578343 ] } },
{ "type": "Feature", "properties": { "nameEn":"Yunnan","name": "云南省", "x": 102.712251, "y": 25.040609, "data": 142 }, "geometry": { "type": "Point", "coordinates": [ 102.712251, 25.040609 ] } },
{ "type": "Feature", "properties": { "nameEn":"Xizang","name": "西藏自治区", "x": 91.132212, "y": 29.660361, "data": 1 }, "geometry": { "type": "Point", "coordinates": [ 91.132212, 29.660361 ] } },
{ "type": "Feature", "properties": { "nameEn":"Shanxi","name": "陕西省", "x": 108.948024, "y": 34.263161, "data": 80 }, "geometry": { "type": "Point", "coordinates": [ 108.948024, 34.263161 ] } },
{ "type": "Feature", "properties": { "nameEn":"Gansu","name": "甘肃省", "x": 103.823557, "y": 36.058039, "data": 129 }, "geometry": { "type": "Point", "coordinates": [ 103.823557, 36.058039 ] } },
{ "type": "Feature", "properties": { "nameEn":"Qinghai","name": "青海省", "x": 101.778916, "y": 36.623178, "data": 81 }, "geometry": { "type": "Point", "coordinates": [ 101.778916, 36.623178 ] } },
{ "type": "Feature", "properties": { "nameEn":"Ningxia","name": "宁夏回族自治区", "x": 106.278179, "y": 38.46637, "data": 100 }, "geometry": { "type": "Point", "coordinates": [ 106.278179, 38.46637 ] } },
{ "type": "Feature", "properties": { "nameEn":"Xinjiang","name": "新疆维吾尔自治区", "x": 87.617733, "y": 43.792818, "data": 241 }, "geometry": { "type": "Point", "coordinates": [ 87.617733, 43.792818 ] } }
]
}
